NORAD_CAT_ID,OBJECT_NAME,OBJECT_TYPE,EPOCH,MEAN_MOTION,ECCENTRICITY,INCLINATION,RA_OF_ASC_NODE,ARG_OF_PERICENTER,MEAN_ANOMALY,BSTAR,MEAN_MOTION_DOT,MEAN_MOTION_DDOT,TLE_LINE0,TLE_LINE1,TLE_LINE2,SEMIMAJOR_AXIS,PERIOD,APOGEE,PERIGEE,DECAYED
51141.0,STARLINK-3179,PAYLOAD,2022-08-04 21:21:19,15.08837913,0.0002171,53.2195,72.5132,65.3459,294.7759,1.5538e-05,-4.1e-07,0.0,0 STARLINK-3179,1 51141U 22005AP  22216.88981312 -.00000041  00000-0  15538-4 0  9996,2 51141  53.2195  72.5132 0002171  65.3459 294.7759 15.08837913 30553,6917.887,95.438,541.254,538.25,0.0
51141.0,STARLINK-3179,PAYLOAD,2022-08-05 00:32:06,15.08839362,0.0002085999999999,53.219,71.9172,63.7551,296.3655,2.65e-05,1.34e-06,0.0,0 STARLINK-3179,1 51141U 22005AP  22217.02229168  .00000134  00000-0  26500-4 0  9990,2 51141  53.2190  71.9172 0002086  63.7551 296.3655 15.08839362 30570,6917.882,95.438,541.19,538.304,0.0
51141.0,STARLINK-3179,PAYLOAD,2022-08-05 21:12:07,15.08834393,0.0002049,53.2195,68.0521,64.4868,295.6336,-7.8087e-05,-1.531e-05,0.0,0 STARLINK-3179,1 51141U 22005AP  22217.88341760 -.00001531  00000-0 -78087-4 0  9998,2 51141  53.2195  68.0521 0002049  64.4868 295.6336 15.08834393 31813,6917.898,95.438,541.18,538.345,0.0
51141.0,STARLINK-3179,PAYLOAD,2022-08-06 13:05:58,15.08834677,0.0002018,53.2192,65.0778,62.7918,297.328,4.8504e-05,4.84e-06,0.0,0 STARLINK-3179,1 51141U 22005AP  22218.54581659  .00000484  00000-0  48504-4 0  9990,2 51141  53.2192  65.0778 0002018  62.7918 297.3280 15.08834677 30804,6917.897,95.438,541.158,538.366,0.0
51141.0,STARLINK-3179,PAYLOAD,2022-08-06 21:02:54,15.08838641,0.0002028,53.2193,63.5911,63.3253,296.7947,3.5954e-05,2.84e-06,0.0,0 STARLINK-3179,1 51141U 22005AP  22218.87701536  .00000284  00000-0  35954-4 0  9997,2 51141  53.2193  63.5911 0002028  63.3253 296.7947 15.08838641 30850,6917.885,95.438,541.1519999999998,538.347,0.0
51141.0,STARLINK-3179,PAYLOAD,2022-08-06 22:38:17,15.08839211,0.0002026,53.2193,63.2939,63.719,296.401,4.0407e-05,3.55e-06,0.0,0 STARLINK-3179,1 51141U 22005AP  22218.94325493  .00000355  00000-0  40407-4 0  9997,2 51141  53.2193  63.2939 0002026  63.7190 296.4010 15.08839211 31975,6917.8830000000025,95.438,541.149,538.346,0.0
51141.0,STARLINK-3179,PAYLOAD,2022-08-07 12:56:45,15.08845883,0.0001959,53.2194,60.6175,64.9547,295.1648,4.8801e-05,4.89e-06,0.0,0 STARLINK-3179,1 51141U 22005AP  22219.53941000  .00000489  00000-0  48801-4 0  9995,2 51141  53.2194  60.6175 0001959  64.9547 295.1648 15.08845883 30954,6917.861999999999,95.437,541.0830000000002,538.372,0.0
51141.0,STARLINK-3179,PAYLOAD,2022-08-07 20:53:41,15.08831933,0.0001982,53.2196,59.1302,62.2156,297.9037,5.8547e-05,6.44e-06,0.0,0 STARLINK-3179,1 51141U 22005AP  22219.87061990  .00000644  00000-0  58547-4 0  9994,2 51141  53.2196  59.1302 0001982  62.2156 297.9037 15.08831933 32117,6917.905,95.438,541.141,538.399,0.0
51141.0,STARLINK-3179,PAYLOAD,2022-08-08 12:47:32,15.08837027,0.0001720999999999,53.2197,56.1554,60.4859,299.6305,0.00012773,1.745e-05,0.0,0 STARLINK-3179,1 51141U 22005AP  22220.53301553  .00001745  00000-0  12773-3 0  9994,2 51141  53.2197  56.1554 0001721  60.4859 299.6305 15.08837027 31100,6917.889,95.438,540.945,538.564,0.0
51141.0,STARLINK-3179,PAYLOAD,2022-08-08 17:33:41,15.08846861,0.0001978,53.2199,55.265,64.8392,295.2805,0.00012485,1.7e-05,0.0,0 STARLINK-3179,1 51141U 22005AP  22220.73172993  .00001700  00000-0  12485-3 0  9991,2 51141  53.2199  55.2650 0001978  64.8392 295.2805 15.08846861 31139,6917.859,95.437,541.0930000000002,538.356,0.0
51141.0,STARLINK-3179,PAYLOAD,2022-08-09 12:38:18,15.08843494,0.0001974,53.2199,51.6969,65.7851,294.3348,0.0001418,1.97e-05,0.0,0 STARLINK-3179,1 51141U 22005AP  22221.52660695  .00001970  00000-0  14180-3 0  9993,2 51141  53.2199  51.6969 0001974  65.7851 294.3348 15.08843494 31252,6917.87,95.437,541.1,538.369,0.0
51141.0,STARLINK-3179,PAYLOAD,2022-08-09 17:24:28,15.08833148,0.0001541,53.2193,50.803,69.6255,290.4903,2.6474e-05,1.33e-06,0.0,0 STARLINK-3179,1 51141U 22005AP  22221.72533562  .00000133  00000-0  26474-4 0  9997,2 51141  53.2193  50.8030 0001541  69.6255 290.4903 15.08833148 32392,6917.901,95.438,540.832,538.7,0.0
51141.0,STARLINK-3179,PAYLOAD,2022-08-10 06:07:34,15.08834398,0.0001528,53.2195,48.4245,69.9893,290.1263,3.4144000000000004e-05,2.55e-06,0.0,0 STARLINK-3179,1 51141U 22005AP  22222.25525586  .00000255  00000-0  34144-4 0  9991,2 51141  53.2195  48.4245 0001528  69.9893 290.1263 15.08834398 31361,6917.898,95.438,540.82,538.705,0.0
51141.0,STARLINK-3179,PAYLOAD,2022-08-10 20:26:03,15.08831301,0.0001710999999999,53.22,45.7496,71.72,288.3978,-0.00011113,-2.056e-05,0.0,0 STARLINK-3179,1 51141U 22005AP  22222.85142562 -.00002056  00000-0 -11113-3 0  9999,2 51141  53.2200  45.7496 0001711  71.7200 288.3978 15.08831301 31456,6917.906999999997,95.438,540.956,538.5880000000002,0.0
51141.0,STARLINK-3179,PAYLOAD,2022-08-11 10:44:31,15.08826703,0.0001266,53.2205,43.07100000000001,85.1887,274.925,-1.5895e-05,-5.41e-06,0.0,0 STARLINK-3179,1 51141U 22005AP  22223.44758635 -.00000541  00000-0 -15895-4 0  9998,2 51141  53.2205  43.0710 0001266  85.1887 274.9250 15.08826703 31540,6917.920999999999,95.438,540.6619999999998,538.91,0.0
51141.0,STARLINK-3179,PAYLOAD,2022-08-11 21:52:13,15.08830359,0.0001539,53.2209,40.9911,80.372,279.7446,9.3073e-05,1.193e-05,0.0,0 STARLINK-3179,1 51141U 22005AP  22223.91126498  .00001193  00000-0  93073-4 0  9992,2 51141  53.2209  40.9911 0001539  80.3720 279.7446 15.08830359 32722,6917.91,95.438,540.84,538.71,0.0
51141.0,STARLINK-3179,PAYLOAD,2022-08-12 12:10:41,15.08835414,0.0001601,53.2204,38.3157,66.3018,293.8142,0.00017512,2.5e-05,0.0,0 STARLINK-3179,1 51141U 22005AP  22224.50742227  .00002500  00000-0  17512-3 0  9998,2 51141  53.2204  38.3157 0001601  66.3018 293.8142 15.08835414 31708,6917.894,95.438,540.867,538.6519999999998,0.0
51141.0,STARLINK-3179,PAYLOAD,2022-08-12 16:56:50,15.08840269,0.0001636999999999,53.2202,37.4238,66.5691,293.5473,0.00021246,3.095e-05,0.0,0 STARLINK-3179,1 51141U 22005AP  22224.70613944  .00003095  00000-0  21246-3 0  9992,2 51141  53.2202  37.4238 0001637  66.5691 293.5473 15.08840269 32848,6917.88,95.438,540.877,538.612,0.0
51141.0,STARLINK-3179,PAYLOAD,2022-08-12 18:32:13,15.08843296,0.0001676999999999,53.22,37.1269,61.3203,298.7957,0.00021864,3.194e-05,0.0,0 STARLINK-3179,1 51141U 22005AP  22224.77237850  .00003194  00000-0  21864-3 0  9993,2 51141  53.2200  37.1269 0001677  61.3203 298.7957 15.08843296 31748,6917.87,95.437,540.895,538.575,0.0
51141.0,STARLINK-3179,PAYLOAD,2022-08-13 10:26:05,15.08842261,0.0001739,53.2198,34.1533,59.7557,300.3607,0.00012559,1.711e-05,0.0,0 STARLINK-3179,1 51141U 22005AP  22225.43478325  .00001711  00000-0  12559-3 0  9995,2 51141  53.2198  34.1533 0001739  59.7557 300.3607 15.08842261 31841,6917.873000000001,95.437,540.941,538.535,0.0
51141.0,STARLINK-3179,PAYLOAD,2022-08-13 19:58:24,15.08832618,0.0001551999999999,53.2202,32.3694,56.567,303.547,2.6588e-05,1.35e-06,0.0,0 STARLINK-3179,1 51141U 22005AP  22225.83223226  .00000135  00000-0  26588-4 0  9994,2 51141  53.2202  32.3694 0001552  56.5670 303.5470 15.08832618 31904,6917.903,95.438,540.842,538.694,0.0
51141.0,STARLINK-3179,PAYLOAD,2022-08-14 10:16:52,15.08837229,0.0001597,53.2204,29.6934,55.3308,304.7834,4.1645e-06,-2.22e-06,0.0,0 STARLINK-3179,1 51141U 22005AP  22226.42839107 -.00000222  00000-0  41645-5 0  9991,2 51141  53.2204  29.6934 0001597  55.3308 304.7834 15.08837229 31995,6917.889,95.438,540.859,538.649,0.0
51141.0,STARLINK-3179,PAYLOAD,2022-08-14 19:49:11,15.08846541,0.0001585,53.2203,27.9088,58.4234,301.6913,1.6691e-05,-2.2e-07,0.0,0 STARLINK-3179,1 51141U 22005AP  22226.82582375 -.00000022  00000-0  16691-4 0  9997,2 51141  53.2203  27.9088 0001585  58.4234 301.6913 15.08846541 32053,6917.86,95.437,540.822,538.629,0.0
51141.0,STARLINK-3179,PAYLOAD,2022-08-15 10:07:39,15.08839776,0.0001525,53.2207,25.2324,59.306,300.8082,2.501800000000001e-05,1.1e-06,0.0,0 STARLINK-3179,1 51141U 22005AP  22227.42198700  .00000110  00000-0  25018-4 0  9999,2 51141  53.2207  25.2324 0001525  59.3060 300.8082 15.08839776 32142,6917.880999999999,95.438,540.8009999999998,538.691,0.0
51141.0,STARLINK-3179,PAYLOAD,2022-08-15 14:53:49,15.08835428,0.0001471,53.2203,24.3394,59.054,301.0597,5.3671e-05,5.66e-06,0.0,0 STARLINK-3179,1 51141U 22005AP  22227.62070952  .00000566  00000-0  53671-4 0  9990,2 51141  53.2203  24.3394 0001471  59.0540 301.0597 15.08835428 32172,6917.894,95.438,540.7769999999998,538.742,0.0
51141.0,STARLINK-3179,PAYLOAD,2022-08-16 09:58:26,15.08842443,0.0001418,53.2203,20.7709,61.8396,298.2739,5.2152e-05,5.42e-06,0.0,0 STARLINK-3179,1 51141U 22005AP  22228.41558813  .00000542  00000-0  52152-4 0  9992,2 51141  53.2203  20.7709 0001418  61.8396 298.2739 15.08842443 32296,6917.873000000001,95.437,540.719,538.757,0.0
51141.0,STARLINK-3179,PAYLOAD,2022-08-16 14:44:35,15.08848523,0.0001553,53.2205,19.88,60.4023,299.7124,0.00010986,1.461e-05,0.0,0 STARLINK-3179,1 51141U 22005AP  22228.61430245  .00001461  00000-0  10986-3 0  9991,2 51141  53.2205  19.8800 0001553  60.4023 299.7124 15.08848523 32324,6917.854,95.437,540.794,538.645,0.0
51141.0,STARLINK-3179,PAYLOAD,2022-08-17 09:49:13,15.08841613,0.0001706,53.2206,16.3125,60.0464,300.0698,0.00011908,1.608e-05,0.0,0 STARLINK-3179,1 51141U 22005AP  22229.40918551  .00001608  00000-0  11908-3 0  9998,2 51141  53.2206  16.3125 0001706  60.0464 300.0698 15.08841613 32440,6917.875,95.437,540.9209999999998,538.56,0.0
51141.0,STARLINK-3179,PAYLOAD,2022-08-18 08:04:37,15.0884086,0.0001492,53.2198,12.149,56.6113,303.5021,4.5222e-05,4.32e-06,0.0,0 STARLINK-3179,1 51141U 22005AP  22230.33654738  .00000432  00000-0  45222-4 0  9997,2 51141  53.2198  12.1490 0001492  56.6113 303.5021 15.08840860 32589,6917.878000000002,95.438,540.775,538.711,0.0
